{"type": "FeatureCollection", "features": [ {"type": "Feature", "properties": {"norad_id": 44542, "name": "BEIDOU-3 M24 (C46)", "group": "beidou", "lat": -52.22588297328642, "lon": 76.46546793643165, "alt_km": 21550.61514305651, "timestamp": "2025-12-19T04:59:48.571591+00:00", "meta": {"OBJECT_NAME": "BEIDOU-3 M24 (C46)", "OBJECT_ID": "2019-061A", "EPOCH": "2025-12-18T06:55:35.380416", "MEAN_MOTION": 1.86229377, "ECCENTRICITY": 0.00096187, "INCLINATION": 54.4001, "RA_OF_ASC_NODE": 188.8287, "ARG_OF_PERICENTER": 25.0003, "MEAN_ANOMALY": 335.1131, "EPHEMERIS_TYPE": 0, "CLASSIFICATION_TYPE": "U", "NORAD_CAT_ID": 44542, "ELEMENT_SET_NO": 999, "REV_AT_EPOCH": 4242, "BSTAR": 0, "MEAN_MOTION_DOT": 1.09e-06, "MEAN_MOTION_DDOT": 0}, "tle": {"line1": "1 44542U 19061A   25352.28860394  .00000109  00000+0  00000+0 0  9991", "line2": "2 44542  54.4001 188.8287 0009618  25.0003 335.1131  1.86229377 42425"}}, "geometry": {"type": "Point", "coordinates": [76.46546793643165, -52.22588297328642]}}, {"type": "Feature", "properties": {"norad_id": 44543, "name": "BEIDOU-3 M23 (C45)", "group": "beidou", "lat": 8.593466269000515, "lon": 2.5537252236341415, "alt_km": 21541.32105571469, "timestamp": "2025-12-19T04:59:48.571603+00:00", "meta": {"OBJECT_NAME": "BEIDOU-3 M23 (C45)", "OBJECT_ID": "2019-061B", "EPOCH": "2025-12-18T04:28:40.463616", "MEAN_MOTION": 1.86227759, "ECCENTRICITY": 0.00060655, "INCLINATION": 54.3991, "RA_OF_ASC_NODE": 188.8006, "ARG_OF_PERICENTER": 24.5513, "MEAN_ANOMALY": 179.8901, "EPHEMERIS_TYPE": 0, "CLASSIFICATION_TYPE": "U", "NORAD_CAT_ID": 44543, "ELEMENT_SET_NO": 999, "REV_AT_EPOCH": 4242, "BSTAR": 0, "MEAN_MOTION_DOT": 1.09e-06, "MEAN_MOTION_DDOT": 0}, "tle": {"line1": "1 44543U 19061B   25352.18657944  .00000109  00000+0  00000+0 0  9996", "line2": "2 44543  54.3991 188.8006 0006065  24.5513 179.8901  1.86227759 42425"}}, "geometry": {"type": "Point", "coordinates": [2.5537252236341415, 8.593466269000515]}}, {"type": "Feature", "properties": {"norad_id": 44709, "name": "BEIDOU-3 IGSO-3 (C40)", "group": "beidou", "lat": -5.879715034191378, "lon": -81.29712930692875, "alt_km": 35974.80973429716, "timestamp": "2025-12-19T04:59:48.571615+00:00", "meta": {"OBJECT_NAME": "BEIDOU-3 IGSO-3 (C40)", "OBJECT_ID": "2019-073A", "EPOCH": "2025-11-20T07:11:22.740000", "MEAN_MOTION": 1.00250097, "ECCENTRICITY": 0.0044538, "INCLINATION": 55.163, "RA_OF_ASC_NODE": 283.159, "ARG_OF_PERICENTER": 191.5856, "MEAN_ANOMALY": 168.2409, "EPHEMERIS_TYPE": 0, "CLASSIFICATION_TYPE": "U", "NORAD_CAT_ID": 44709, "ELEMENT_SET_NO": 999, "REV_AT_EPOCH": 2236, "BSTAR": 0, "MEAN_MOTION_DOT": -2.06e-06, "MEAN_MOTION_DDOT": 0}, "tle": {"line1": "1 44709U 19073A   25324.29956875 -.00000206  00000+0  00000+0 0  9998", "line2": "2 44709  55.1630 283.1590 0044538 191.5856 168.2409  1.00250097 22360"}}, "geometry": {"type": "Point", "coordinates": [-81.29712930692875, -5.879715034191378]}}, {"type": "Feature", "properties": {"norad_id": 44793, "name": "BEIDOU-3 M22 (C44)", "group": "beidou", "lat": 3.1034857042540147, "lon": -51.61700378559158, "alt_km": 21512.096873503353, "timestamp": "2025-12-19T04:59:48.571630+00:00", "meta": {"OBJECT_NAME": "BEIDOU-3 M22 (C44)", "OBJECT_ID": "2019-078A", "EPOCH": "2025-12-18T03:05:10.380768", "MEAN_MOTION": 1.86232153, "ECCENTRICITY": 0.00060099, "INCLINATION": 54.1032, "RA_OF_ASC_NODE": 306.1968, "ARG_OF_PERICENTER": 24.2925, "MEAN_ANOMALY": 335.7236, "EPHEMERIS_TYPE": 0, "CLASSIFICATION_TYPE": "U", "NORAD_CAT_ID": 44793, "ELEMENT_SET_NO": 999, "REV_AT_EPOCH": 4127, "BSTAR": 0, "MEAN_MOTION_DOT": -8.5e-07, "MEAN_MOTION_DDOT": 0}, "tle": {"line1": "1 44793U 19078A   25352.12859237 -.00000085  00000+0  00000+0 0  9998", "line2": "2 44793  54.1032 306.1968 0006009  24.2925 335.7236  1.86232153 41270"}}, "geometry": {"type": "Point", "coordinates": [-51.61700378559158, 3.1034857042540147]}}, {"type": "Feature", "properties": {"norad_id": 44794, "name": "BEIDOU-3 M21 (C43)", "group": "beidou", "lat": -54.05971887637166, "lon": -141.49505000390155, "alt_km": 21536.258668476, "timestamp": "2025-12-19T04:59:48.571641+00:00", "meta": {"OBJECT_NAME": "BEIDOU-3 M21 (C43)", "OBJECT_ID": "2019-078B", "EPOCH": "2025-12-16T15:43:55.727904", "MEAN_MOTION": 1.86227668, "ECCENTRICITY": 0.00041169, "INCLINATION": 54.078, "RA_OF_ASC_NODE": 306.2132, "ARG_OF_PERICENTER": 11.942, "MEAN_ANOMALY": 348.0544, "EPHEMERIS_TYPE": 0, "CLASSIFICATION_TYPE": "U", "NORAD_CAT_ID": 44794, "ELEMENT_SET_NO": 999, "REV_AT_EPOCH": 4125, "BSTAR": 0, "MEAN_MOTION_DOT": -9.5e-07, "MEAN_MOTION_DDOT": 0}, "tle": {"line1": "1 44794U 19078B   25350.65550611 -.00000095  00000+0  00000+0 0  9990", "line2": "2 44794  54.0780 306.2132 0004116  11.9420 348.0544  1.86227668 41256"}}, "geometry": {"type": "Point", "coordinates": [-141.49505000390155, -54.05971887637166]}}, {"type": "Feature", "properties": {"norad_id": 44864, "name": "BEIDOU-3 M19 (C41)", "group": "beidou", "lat": 52.72415741097047, "lon": -171.94769404224004, "alt_km": 21572.33720717375, "timestamp": "2025-12-19T04:59:48.571653+00:00", "meta": {"OBJECT_NAME": "BEIDOU-3 M19 (C41)", "OBJECT_ID": "2019-090A", "EPOCH": "2025-12-18T12:21:17.080992", "MEAN_MOTION": 1.86231635, "ECCENTRICITY": 0.00181366, "INCLINATION": 56.3981, "RA_OF_ASC_NODE": 68.7699, "ARG_OF_PERICENTER": 285.1234, "MEAN_ANOMALY": 77.2184, "EPHEMERIS_TYPE": 0, "CLASSIFICATION_TYPE": "U", "NORAD_CAT_ID": 44864, "ELEMENT_SET_NO": 999, "REV_AT_EPOCH": 4087, "BSTAR": 0, "MEAN_MOTION_DOT": -6.2e-07, "MEAN_MOTION_DDOT": 0}, "tle": {"line1": "1 44864U 19090A   25352.51478103 -.00000062  00000+0  00000+0 0  9998", "line2": "2 44864  56.3981  68.7699 0018136 285.1234  77.2184  1.86231635 40872"}}, "geometry": {"type": "Point", "coordinates": [-171.94769404224004, 52.72415741097047]}}, {"type": "Feature", "properties": {"norad_id": 44865, "name": "BEIDOU-3 M20 (C42)", "group": "beidou", "lat": -13.852265965304284, "lon": -101.78280193381545, "alt_km": 21537.68570333091, "timestamp": "2025-12-19T04:59:48.571664+00:00", "meta": {"OBJECT_NAME": "BEIDOU-3 M20 (C42)", "OBJECT_ID": "2019-090B", "EPOCH": "2025-12-18T13:12:22.451040", "MEAN_MOTION": 1.86231689, "ECCENTRICITY": 0.00154108, "INCLINATION": 56.3994, "RA_OF_ASC_NODE": 68.8029, "ARG_OF_PERICENTER": 297.0214, "MEAN_ANOMALY": 178.7198, "EPHEMERIS_TYPE": 0, "CLASSIFICATION_TYPE": "U", "NORAD_CAT_ID": 44865, "ELEMENT_SET_NO": 999, "REV_AT_EPOCH": 4085, "BSTAR": 0, "MEAN_MOTION_DOT": -6.2e-07, "MEAN_MOTION_DDOT": 0}, "tle": {"line1": "1 44865U 19090B   25352.55025985 -.00000062  00000+0  00000+0 0  9999", "line2": "2 44865  56.3994  68.8029 0015410 297.0214 178.7198  1.86231689 40856"}}, "geometry": {"type": "Point", "coordinates": [-101.78280193381545, -13.852265965304284]}}, {"type": "Feature", "properties": {"norad_id": 45344, "name": "BEIDOU-3 G2 (C60)", "group": "beidou", "lat": -0.841645338903862, "lon": -117.00203566829808, "alt_km": 35778.44067517135, "timestamp": "2025-12-19T04:59:48.571676+00:00", "meta": {"OBJECT_NAME": "BEIDOU-3 G2 (C60)", "OBJECT_ID": "2020-017A", "EPOCH": "2025-12-18T20:31:28.077312", "MEAN_MOTION": 1.00273241, "ECCENTRICITY": 0.00020819, "INCLINATION": 2.5082, "RA_OF_ASC_NODE": 43.994, "ARG_OF_PERICENTER": 232.5941, "MEAN_ANOMALY": 199.013, "EPHEMERIS_TYPE": 0, "CLASSIFICATION_TYPE": "U", "NORAD_CAT_ID": 45344, "ELEMENT_SET_NO": 999, "REV_AT_EPOCH": 2145, "BSTAR": 0, "MEAN_MOTION_DOT": -1.18e-06, "MEAN_MOTION_DDOT": 0}, "tle": {"line1": "1 45344U 20017A   25352.85518608 -.00000118  00000+0  00000+0 0  9997", "line2": "2 45344   2.5082  43.9940 0002081 232.5941 199.0130  1.00273241 21450"}}, "geometry": {"type": "Point", "coordinates": [-117.00203566829808, -0.841645338903862]}}, {"type": "Feature", "properties": {"norad_id": 45807, "name": "BEIDOU-3 G3 (C61)", "group": "beidou", "lat": -0.933360877242492, "lon": -86.50077965446005, "alt_km": 35792.31834264771, "timestamp": "2025-12-19T04:59:48.571688+00:00", "meta": {"OBJECT_NAME": "BEIDOU-3 G3 (C61)", "OBJECT_ID": "2020-040A", "EPOCH": "2025-12-18T22:22:54.904224", "MEAN_MOTION": 1.00271264, "ECCENTRICITY": 0.00064278, "INCLINATION": 2.0056, "RA_OF_ASC_NODE": 66.6354, "ARG_OF_PERICENTER": 309.3696, "MEAN_ANOMALY": 158.0932, "EPHEMERIS_TYPE": 0, "CLASSIFICATION_TYPE": "U", "NORAD_CAT_ID": 45807, "ELEMENT_SET_NO": 999, "REV_AT_EPOCH": 2026, "BSTAR": 0, "MEAN_MOTION_DOT": -3.31e-06, "MEAN_MOTION_DDOT": 0}, "tle": {"line1": "1 45807U 20040A   25352.93257991 -.00000331  00000+0  00000+0 0  9998", "line2": "2 45807   2.0056  66.6354 0006427 309.3696 158.0932  1.00271264 20265"}}, "geometry": {"type": "Point", "coordinates": [-86.50077965446005, -0.933360877242492]}}, {"type": "Feature", "properties": {"norad_id": 56564, "name": "BEIDOU-3 G4 (C62)", "group": "beidou", "lat": 0.27018423997204105, "lon": -36.92780730879528, "alt_km": 35796.42687261872, "timestamp": "2025-12-19T04:59:48.571700+00:00", "meta": {"OBJECT_NAME": "BEIDOU-3 G4 (C62)", "OBJECT_ID": "2023-066A", "EPOCH": "2025-12-18T22:37:01.053120", "MEAN_MOTION": 1.0027165, "ECCENTRICITY": 0.00027434, "INCLINATION": 0.8018, "RA_OF_ASC_NODE": 302.5246, "ARG_OF_PERICENTER": 226.6276, "MEAN_ANOMALY": 57.962, "EPHEMERIS_TYPE": 0, "CLASSIFICATION_TYPE": "U", "NORAD_CAT_ID": 56564, "ELEMENT_SET_NO": 999, "REV_AT_EPOCH": 958, "BSTAR": 0, "MEAN_MOTION_DOT": -8.5e-07, "MEAN_MOTION_DDOT": 0}, "tle": {"line1": "1 56564U 23066A   25352.94237330 -.00000085  00000+0  00000+0 0  9993", "line2": "2 56564   0.8018 302.5246 0002743 226.6276  57.9620  1.00271650  9587"}}, "geometry": {"type": "Point", "coordinates": [-36.92780730879528, 0.27018423997204105]}}]}